{
    "links": {
        "self": "http://www.neowsapp.com/rest/v1/neo/3582236?api_key=iIulBulltgU6a56xZRHN4H3l9WmuAYTsLGpBGhQ2"
    },
    "id": "3582236",
    "neo_reference_id": "3582236",
    "name": "(2011 UJ21)",
    "designation": "2011 UJ21",
    "nasa_jpl_url": "http://ssd.jpl.nasa.gov/sbdb.cgi?sstr=3582236",
    "absolute_magnitude_h": 23.8,
    "estimated_diameter": {
        "kilometers": {
            "estimated_diameter_min": 0.046190746,
            "estimated_diameter_max": 0.1032856481
        },
        "meters": {
            "estimated_diameter_min": 46.1907460282,
            "estimated_diameter_max": 103.2856480504
        },
        "miles": {
            "estimated_diameter_min": 0.0287015901,
            "estimated_diameter_max": 0.0641787064
        },
        "feet": {
            "estimated_diameter_min": 151.544447199,
            "estimated_diameter_max": 338.8636855496
        }
    },
    "is_potentially_hazardous_asteroid": false,
    "close_approach_data": [
        {
            "close_approach_date": "2009-04-03",
            "close_approach_date_full": "2009-Apr-03 07:45",
            "epoch_date_close_approach": 1238744700000,
            "relative_velocity": {
                "kilometers_per_second": "15.8051514345",
                "kilometers_per_hour": "56898.5451640477",
                "miles_per_hour": "35354.5432437384"
            },
            "miss_distance": {
                "astronomical": "0.1303357681",
                "lunar": "50.7006137909",
                "kilometers": "19497953.292573947",
                "miles": "12115466.3743645886"
            },
            "orbiting_body": "Venus"
        },
        {
            "close_approach_date": "2009-10-10",
            "close_approach_date_full": "2009-Oct-10 22:53",
            "epoch_date_close_approach": 1255215180000,
            "relative_velocity": {
                "kilometers_per_second": "14.2025993739",
                "kilometers_per_hour": "51129.3577461998",
                "miles_per_hour": "31769.7945395762"
            },
            "miss_distance": {
                "astronomical": "0.434070601",
                "lunar": "168.853463789",
                "kilometers": "64936037.33921987",
                "miles": "40349382.576859406"
            },
            "orbiting_body": "Earth"
        },
        {
            "close_approach_date": "2010-10-25",
            "close_approach_date_full": "2010-Oct-25 08:31",
            "epoch_date_close_approach": 1287995460000,
            "relative_velocity": {
                "kilometers_per_second": "13.9624421212",
                "kilometers_per_hour": "50264.7916363805",
                "miles_per_hour": "31232.5867809499"
            },
            "miss_distance": {
                "astronomical": "0.2195339895",
                "lunar": "85.3987219155",
                "kilometers": "32841817.221802365",
                "miles": "20406958.938368037"
            },
            "orbiting_body": "Earth"
        },
        {
            "close_approach_date": "2011-10-25",
            "close_approach_date_full": "2011-Oct-25 08:38",
            "epoch_date_close_approach": 1319531880000,
            "relative_velocity": {
                "kilometers_per_second": "16.1534393368",
                "kilometers_per_hour": "58152.3816125509",
                "miles_per_hour": "36133.628452532"
            },
            "miss_distance": {
                "astronomical": "0.0398292206",
                "lunar": "15.4935668134",
                "kilometers": "5958366.565520122",
                "miles": "3702357.3032248036"
            },
            "orbiting_body": "Earth"
        },
        {
            "close_approach_date": "2012-10-17",
            "close_approach_date_full": "2012-Oct-17 14:14",
            "epoch_date_close_approach": 1350483240000,
            "relative_velocity": {
                "kilometers_per_second": "21.2305116951",
                "kilometers_per_hour": "76429.8421025364",
                "miles_per_hour": "47490.5316108788"
            },
            "miss_distance": {
                "astronomical": "0.2785059892",
                "lunar": "108.3388297988",
                "kilometers": "41663902.766563004",
                "miles": "25888748.7019132952"
            },
            "orbiting_body": "Earth"
        }
    ],
    "orbital_data": {
        "orbit_id": "8",
        "orbit_determination_date": "2017-04-06 08:52:22",
        "first_observation_date": "2011-10-20",
        "last_observation_date": "2011-10-29",
        "data_arc_in_days": 9,
        "observations_used": 30,
        "orbit_uncertainty": "8",
        "minimum_orbit_intersection": ".0307252",
        "jupiter_tisserand_invariant": "6.090",
        "epoch_osculation": "2455857.5",
        "eccentricity": ".2746071424873853",
        "semi_major_axis": ".9718582754228846",
        "inclination": "27.7320711442819",
        "ascending_node_longitude": "30.2061957172465",
        "orbital_period": "349.9474493668845",
        "perihelion_distance": ".704979051506288",
        "perihelion_argument": "117.7659997810693",
        "aphelion_distance": "1.238737499339481",
        "perihelion_time": "2455941.485180387472",
        "mean_anomaly": "273.6022708718419",
        "mean_motion": "1.028725886276074",
        "equinox": "J2000",
        "orbit_class": {
            "orbit_class_type": "ATE",
            "orbit_class_description": "Near-Earth asteroid orbits similar to that of 2062 Aten",
            "orbit_class_range": "a (semi-major axis) < 1.0 AU; q (perihelion) > 0.983 AU"
        }
    },
    "is_sentry_object": false
}